{"type": "FeatureCollection", "features": [ {"type": "Feature", "properties": {"norad_id": 31056, "name": "FENGYUN 1C DEB", "group": "fengyun-1c-debris", "lat": 80.79690584359868, "lon": -87.01532268587393, "alt_km": 852.060987906938, "timestamp": "2025-12-27T04:40:45.785859+00:00", "meta": {"OBJECT_NAME": "FENGYUN 1C DEB", "OBJECT_ID": "1999-025BFA", "EPOCH": "2025-12-26T10:19:01.385760", "MEAN_MOTION": 14.14324845, "ECCENTRICITY": 0.0024888, "INCLINATION": 98.6697, "RA_OF_ASC_NODE": 342.584, "ARG_OF_PERICENTER": 303.0683, "MEAN_ANOMALY": 210.3324, "EPHEMERIS_TYPE": 0, "CLASSIFICATION_TYPE": "U", "NORAD_CAT_ID": 31056, "ELEMENT_SET_NO": 999, "REV_AT_EPOCH": 97011, "BSTAR": 0.00037109, "MEAN_MOTION_DOT": 6.68e-06, "MEAN_MOTION_DDOT": 0}, "tle": {"line1": "1 31056U 99025BFA 25360.42987715  .00000668  00000+0  37109-3 0  9991", "line2": "2 31056  98.6697 342.5840 0024888 303.0683 210.3324 14.14324845970110"}}, "geometry": {"type": "Point", "coordinates": [-87.01532268587393, 80.79690584359868]}}, {"type": "Feature", "properties": {"norad_id": 31057, "name": "FENGYUN 1C DEB", "group": "fengyun-1c-debris", "lat": 56.90748106913269, "lon": -122.71251620027485, "alt_km": 615.161849423308, "timestamp": "2025-12-27T04:40:45.785870+00:00", "meta": {"OBJECT_NAME": "FENGYUN 1C DEB", "OBJECT_ID": "1999-025BFB", "EPOCH": "2025-12-23T20:35:18.344544", "MEAN_MOTION": 14.79509399, "ECCENTRICITY": 0.01376332, "INCLINATION": 99.2549, "RA_OF_ASC_NODE": 38.9584, "ARG_OF_PERICENTER": 217.07, "MEAN_ANOMALY": 142.094, "EPHEMERIS_TYPE": 0, "CLASSIFICATION_TYPE": "U", "NORAD_CAT_ID": 31057, "ELEMENT_SET_NO": 999, "REV_AT_EPOCH": 62117, "BSTAR": 0.0010448205, "MEAN_MOTION_DOT": 9.107e-05, "MEAN_MOTION_DDOT": 0}, "tle": {"line1": "1 31057U 99025BFB 25357.85785121  .00009107  00000+0  10448-2 0  9995", "line2": "2 31057  99.2549  38.9584 0137633 217.0700 142.0940 14.79509399621176"}}, "geometry": {"type": "Point", "coordinates": [-122.71251620027485, 56.90748106913269]}}, {"type": "Feature", "properties": {"norad_id": 31058, "name": "FENGYUN 1C DEB", "group": "fengyun-1c-debris", "lat": 46.03656571262465, "lon": 143.1895588150379, "alt_km": 613.85950300281, "timestamp": "2025-12-27T04:40:45.785880+00:00", "meta": {"OBJECT_NAME": "FENGYUN 1C DEB", "OBJECT_ID": "1999-025BFC", "EPOCH": "2025-12-21T14:43:24.738528", "MEAN_MOTION": 14.76461843, "ECCENTRICITY": 0.00952203, "INCLINATION": 99.5682, "RA_OF_ASC_NODE": 306.5125, "ARG_OF_PERICENTER": 79.2038, "MEAN_ANOMALY": 281.9867, "EPHEMERIS_TYPE": 0, "CLASSIFICATION_TYPE": "U", "NORAD_CAT_ID": 31058, "ELEMENT_SET_NO": 999, "REV_AT_EPOCH": 99680, "BSTAR": 0.0010269728, "MEAN_MOTION_DOT": 7.633e-05, "MEAN_MOTION_DDOT": 0}, "tle": {"line1": "1 31058U 99025BFC 25355.61348077  .00007633  00000+0  10270-2 0  9998", "line2": "2 31058  99.5682 306.5125 0095220  79.2038 281.9867 14.76461843996804"}}, "geometry": {"type": "Point", "coordinates": [143.1895588150379, 46.03656571262465]}}, {"type": "Feature", "properties": {"norad_id": 31062, "name": "FENGYUN 1C DEB", "group": "fengyun-1c-debris", "lat": 73.0889151910352, "lon": 34.1905506844583, "alt_km": 1097.7834088880145, "timestamp": "2025-12-27T04:40:45.785890+00:00", "meta": {"OBJECT_NAME": "FENGYUN 1C DEB", "OBJECT_ID": "1999-025BFG", "EPOCH": "2025-12-26T17:59:57.155712", "MEAN_MOTION": 13.75698885, "ECCENTRICITY": 0.01714278, "INCLINATION": 98.9967, "RA_OF_ASC_NODE": 182.3665, "ARG_OF_PERICENTER": 280.5403, "MEAN_ANOMALY": 141.2578, "EPHEMERIS_TYPE": 0, "CLASSIFICATION_TYPE": "U", "NORAD_CAT_ID": 31062, "ELEMENT_SET_NO": 999, "REV_AT_EPOCH": 94426, "BSTAR": 0.00026074673, "MEAN_MOTION_DOT": 2.38e-06, "MEAN_MOTION_DDOT": 0}, "tle": {"line1": "1 31062U 99025BFG 25360.74996708  .00000238  00000+0  26075-3 0  9998", "line2": "2 31062  98.9967 182.3665 0171427 280.5403 141.2578 13.75698885944260"}}, "geometry": {"type": "Point", "coordinates": [34.1905506844583, 73.0889151910352]}}, {"type": "Feature", "properties": {"norad_id": 31064, "name": "FENGYUN 1C DEB", "group": "fengyun-1c-debris", "lat": 29.09002395678658, "lon": 168.31254626130016, "alt_km": 986.63268621717, "timestamp": "2025-12-27T04:40:45.785900+00:00", "meta": {"OBJECT_NAME": "FENGYUN 1C DEB", "OBJECT_ID": "1999-025BFJ", "EPOCH": "2025-12-25T04:44:59.881920", "MEAN_MOTION": 14.22163246, "ECCENTRICITY": 0.024077, "INCLINATION": 98.575, "RA_OF_ASC_NODE": 341.5529, "ARG_OF_PERICENTER": 325.4003, "MEAN_ANOMALY": 46.8485, "EPHEMERIS_TYPE": 0, "CLASSIFICATION_TYPE": "U", "NORAD_CAT_ID": 31064, "ELEMENT_SET_NO": 999, "REV_AT_EPOCH": 97432, "BSTAR": 0.00037871, "MEAN_MOTION_DOT": 1.078e-05, "MEAN_MOTION_DDOT": 0}, "tle": {"line1": "1 31064U 99025BFJ 25359.19791530  .00001078  00000+0  37871-3 0  9992", "line2": "2 31064  98.5750 341.5529 0240770 325.4003  46.8485 14.22163246974327"}}, "geometry": {"type": "Point", "coordinates": [168.31254626130016, 29.09002395678658]}}, {"type": "Feature", "properties": {"norad_id": 31065, "name": "FENGYUN 1C DEB", "group": "fengyun-1c-debris", "lat": 35.19834437403623, "lon": 13.833559570906695, "alt_km": 778.1972261190631, "timestamp": "2025-12-27T04:40:45.785910+00:00", "meta": {"OBJECT_NAME": "FENGYUN 1C DEB", "OBJECT_ID": "1999-025BFK", "EPOCH": "2025-12-24T07:34:42.003552", "MEAN_MOTION": 14.28222033, "ECCENTRICITY": 0.00346758, "INCLINATION": 98.4648, "RA_OF_ASC_NODE": 17.0717, "ARG_OF_PERICENTER": 357.2807, "MEAN_ANOMALY": 2.8181, "EPHEMERIS_TYPE": 0, "CLASSIFICATION_TYPE": "U", "NORAD_CAT_ID": 31065, "ELEMENT_SET_NO": 999, "REV_AT_EPOCH": 64743, "BSTAR": 0.00089045947, "MEAN_MOTION_DOT": 2.191e-05, "MEAN_MOTION_DDOT": 0}, "tle": {"line1": "1 31065U 99025BFK 25358.31576393  .00002191  00000+0  89046-3 0  9992", "line2": "2 31065  98.4648  17.0717 0034675 357.2807   2.8181 14.28222033647437"}}, "geometry": {"type": "Point", "coordinates": [13.833559570906695, 35.19834437403623]}}, {"type": "Feature", "properties": {"norad_id": 31068, "name": "FENGYUN 1C DEB", "group": "fengyun-1c-debris", "lat": 10.489443649806345, "lon": 164.37513276920643, "alt_km": 865.4215668488205, "timestamp": "2025-12-27T04:40:45.785920+00:00", "meta": {"OBJECT_NAME": "FENGYUN 1C DEB", "OBJECT_ID": "1999-025BFN", "EPOCH": "2025-12-26T04:02:23.522784", "MEAN_MOTION": 14.09200241, "ECCENTRICITY": 0.01658062, "INCLINATION": 98.6304, "RA_OF_ASC_NODE": 341.7798, "ARG_OF_PERICENTER": 80.3434, "MEAN_ANOMALY": 281.6423, "EPHEMERIS_TYPE": 0, "CLASSIFICATION_TYPE": "U", "NORAD_CAT_ID": 31068, "ELEMENT_SET_NO": 999, "REV_AT_EPOCH": 96544, "BSTAR": 0.00024464667, "MEAN_MOTION_DOT": 4.42e-06, "MEAN_MOTION_DDOT": 0}, "tle": {"line1": "1 31068U 99025BFN 25360.16832781  .00000442  00000+0  24465-3 0  9998", "line2": "2 31068  98.6304 341.7798 0165806  80.3434 281.6423 14.09200241965444"}}, "geometry": {"type": "Point", "coordinates": [164.37513276920643, 10.489443649806345]}}, {"type": "Feature", "properties": {"norad_id": 31069, "name": "FENGYUN 1C DEB", "group": "fengyun-1c-debris", "lat": 44.98346949488454, "lon": -7.9700583121167385, "alt_km": 710.8614070188205, "timestamp": "2025-12-27T04:40:45.785930+00:00", "meta": {"OBJECT_NAME": "FENGYUN 1C DEB", "OBJECT_ID": "1999-025BFP", "EPOCH": "2025-12-24T06:51:36.664992", "MEAN_MOTION": 14.57173956, "ECCENTRICITY": 0.01042029, "INCLINATION": 99.1001, "RA_OF_ASC_NODE": 159.6357, "ARG_OF_PERICENTER": 42.6604, "MEAN_ANOMALY": 318.2624, "EPHEMERIS_TYPE": 0, "CLASSIFICATION_TYPE": "U", "NORAD_CAT_ID": 31069, "ELEMENT_SET_NO": 999, "REV_AT_EPOCH": 98854, "BSTAR": 0.0006394022, "MEAN_MOTION_DOT": 3.049e-05, "MEAN_MOTION_DDOT": 0}, "tle": {"line1": "1 31069U 99025BFP 25358.28584103  .00003049  00000+0  63940-3 0  9998", "line2": "2 31069  99.1001 159.6357 0104202  42.6604 318.2624 14.57173956988546"}}, "geometry": {"type": "Point", "coordinates": [-7.9700583121167385, 44.98346949488454]}}, {"type": "Feature", "properties": {"norad_id": 31071, "name": "FENGYUN 1C DEB", "group": "fengyun-1c-debris", "lat": -1.5141308636083772, "lon": 80.2952997469522, "alt_km": 739.9597818292877, "timestamp": "2025-12-27T04:40:45.785940+00:00", "meta": {"OBJECT_NAME": "FENGYUN 1C DEB", "OBJECT_ID": "1999-025BFR", "EPOCH": "2025-12-26T12:09:23.467104", "MEAN_MOTION": 14.52747452, "ECCENTRICITY": 0.0056094, "INCLINATION": 99.0392, "RA_OF_ASC_NODE": 79.3129, "ARG_OF_PERICENTER": 239.9676, "MEAN_ANOMALY": 119.5945, "EPHEMERIS_TYPE": 0, "CLASSIFICATION_TYPE": "U", "NORAD_CAT_ID": 31071, "ELEMENT_SET_NO": 999, "REV_AT_EPOCH": 65694, "BSTAR": 0.0011589, "MEAN_MOTION_DOT": 4.803e-05, "MEAN_MOTION_DDOT": 0}, "tle": {"line1": "1 31071U 99025BFR 25360.50652161  .00004803  00000+0  11589-2 0  9999", "line2": "2 31071  99.0392  79.3129 0056094 239.9676 119.5945 14.52747452656948"}}, "geometry": {"type": "Point", "coordinates": [80.2952997469522, -1.5141308636083772]}}, {"type": "Feature", "properties": {"norad_id": 31072, "name": "FENGYUN 1C DEB", "group": "fengyun-1c-debris", "lat": -65.64789658336726, "lon": 166.20067040235213, "alt_km": 962.1758161018824, "timestamp": "2025-12-27T04:40:45.785950+00:00", "meta": {"OBJECT_NAME": "FENGYUN 1C DEB", "OBJECT_ID": "1999-025BFS", "EPOCH": "2025-12-25T22:53:35.674368", "MEAN_MOTION": 14.25530356, "ECCENTRICITY": 0.0210218, "INCLINATION": 99.3336, "RA_OF_ASC_NODE": 6.1866, "ARG_OF_PERICENTER": 60.1537, "MEAN_ANOMALY": 302.0353, "EPHEMERIS_TYPE": 0, "CLASSIFICATION_TYPE": "U", "NORAD_CAT_ID": 31072, "ELEMENT_SET_NO": 999, "REV_AT_EPOCH": 96831, "BSTAR": 0.00069077, "MEAN_MOTION_DOT": 2.007e-05, "MEAN_MOTION_DDOT": 0}, "tle": {"line1": "1 31072U 99025BFS 25359.95388512  .00002007  00000+0  69077-3 0  9993", "line2": "2 31072  99.3336   6.1866 0210218  60.1537 302.0353 14.25530356968318"}}, "geometry": {"type": "Point", "coordinates": [166.20067040235213, -65.64789658336726]}}]}